NORAD_CAT_ID,OBJECT_NAME,OBJECT_TYPE,EPOCH,MEAN_MOTION,ECCENTRICITY,INCLINATION,RA_OF_ASC_NODE,ARG_OF_PERICENTER,MEAN_ANOMALY,BSTAR,MEAN_MOTION_DOT,MEAN_MOTION_DDOT,TLE_LINE0,TLE_LINE1,TLE_LINE2,SEMIMAJOR_AXIS,PERIOD,APOGEE,PERIGEE,DECAYED
51758.0,STARLINK-3458,PAYLOAD,2024-06-20 14:59:18,15.08842665,0.0001388,53.2158,244.0784,95.7738,264.3412,5.3505e-05,5.64e-06,0.0,0 STARLINK-3458,1 51758U 22016AW  24172.62452178  .00000564  00000-0  53505-4 0  9995,2 51758  53.2158 244.0784 0001388  95.7738 264.3412 15.08842665130180,6917.872,95.437,540.697,538.777,0.0
51758.0,STARLINK-3458,PAYLOAD,2024-06-21 03:42:24,15.08836572,0.000142,53.2154,241.6993,89.123,270.9925,4.8194e-05,4.79e-06,0.0,0 STARLINK-3458,1 51758U 22016AW  24173.15444636  .00000479  00000-0  48194-4 0  9997,2 51758  53.2154 241.6993 0001420  89.1230 270.9925 15.08836572130263,6917.891,95.438,540.738,538.774,0.0
51758.0,STARLINK-3458,PAYLOAD,2024-06-21 11:39:19,15.08839103,0.0001421,53.2157,240.2125,88.9118,271.2037,5.7013e-05,6.2e-06,0.0,0 STARLINK-3458,1 51758U 22016AW  24173.48564504  .00000620  00000-0  57013-4 0  9998,2 51758  53.2157 240.2125 0001421  88.9118 271.2037 15.08839103130318,6917.883,95.438,540.731,538.765,0.0
51758.0,STARLINK-3458,PAYLOAD,2024-06-22 13:05:30,15.08835998,0.0001395,53.2157,235.4541,86.1769,273.9383,2.8509e-05,1.66e-06,0.0,0 STARLINK-3458,1 51758U 22016AW  24174.54549120  .00000166  00000-0  28509-4 0  9996,2 51758  53.2157 235.4541 0001395  86.1769 273.9383 15.08835998130476,6917.893,95.438,540.723,538.793,0.0
51758.0,STARLINK-3458,PAYLOAD,2024-06-23 11:20:55,15.08820704,0.0001591,53.216,231.293,120.809,239.3059,-5.4721e-05,-1.158e-05,0.0,0 STARLINK-3458,1 51758U 22016AW  24175.47286882 -.00001158  00000-0 -54721-4 0  9991,2 51758  53.2160 231.2930 0001591 120.8090 239.3059 15.08820704130618,6917.939,95.439,540.905,538.704,0.0
51758.0,STARLINK-3458,PAYLOAD,2024-06-24 03:14:46,15.08833412,0.0001136,53.2149,228.3098,115.0091,245.1019,2.0777e-05,4.3e-07,0.0,0 STARLINK-3458,1 51758U 22016AW  24176.13526324  .00000043  00000-0  20777-4 0  9997,2 51758  53.2149 228.3098 0001136 115.0091 245.1019 15.08833412130711,6917.901,95.438,540.551,538.98,0.0
51758.0,STARLINK-3458,PAYLOAD,2024-06-24 11:11:41,15.08842674,0.000151,53.2154,226.8341,69.3943,290.7211,0.0001317,1.809e-05,0.0,0 STARLINK-3458,1 51758U 22016AW  24176.46645568  .00001809  00000-0  13170-3 0  9994,2 51758  53.2154 226.8341 0001510  69.3943 290.7211 15.08842674130769,6917.872,95.437,540.782,538.693,0.0
51758.0,STARLINK-3458,PAYLOAD,2024-06-25 09:27:05,15.08839889,0.000155,53.2152,222.6702,63.8043,296.3108,0.00029435,4.4e-05,0.0,0 STARLINK-3458,1 51758U 22016AW  24177.39381198  .00004400  00000-0  29435-3 0  9994,2 51758  53.2152 222.6702 0001550  63.8043 296.3108 15.08839889130903,6917.881,95.438,540.818,538.673,0.0
51758.0,STARLINK-3458,PAYLOAD,2024-06-26 09:17:51,15.08852579,0.0001246,53.2146,218.2065,79.6227,280.4905,6.007e-07,-2.78e-06,0.0,0 STARLINK-3458,1 51758U 22016AW  24178.38740623 -.00000278  00000-0  60070-6 0  9999,2 51758  53.2146 218.2065 0001246  79.6227 280.4905 15.08852579131057,6917.842,95.437,540.569,538.845,0.0
51758.0,STARLINK-3458,PAYLOAD,2024-06-27 09:08:39,15.08836918,0.0001323,53.2146,213.7441,101.435,258.6791,-7.3089e-05,-1.451e-05,0.0,0 STARLINK-3458,1 51758U 22016AW  24179.38101368 -.00001451  00000-0 -73089-4 0  9994,2 51758  53.2146 213.7441 0001323 101.4350 258.6791 15.08836918131208,6917.89,95.438,540.67,538.84,0.0
51758.0,STARLINK-3458,PAYLOAD,2024-06-28 08:59:26,15.08837999,0.0001147,53.2139,209.2853,82.5061,277.6061,2.9045e-05,1.74e-06,0.0,0 STARLINK-3458,1 51758U 22016AW  24180.37461169  .00000174  00000-0  29045-4 0  9995,2 51758  53.2139 209.2853 0001147  82.5061 277.6061 15.08837999131356,6917.887,95.438,540.545,538.958,0.0
51758.0,STARLINK-3458,PAYLOAD,2024-06-29 05:39:27,15.08835124,0.0001196,53.214,205.4212,94.1971,265.9157,8.4626e-05,1.059e-05,0.0,0 STARLINK-3458,1 51758U 22016AW  24181.23573439  .00001059  00000-0  84626-4 0  9994,2 51758  53.2140 205.4212 0001196  94.1971 265.9157 15.08835124131486,6917.895,95.438,540.588,538.933,0.0
51758.0,STARLINK-3458,PAYLOAD,2024-06-29 07:14:50,15.08835399,0.0001199,53.2142,205.1239,94.231,265.8819,8.5621e-05,1.075e-05,0.0,0 STARLINK-3458,1 51758U 22016AW  24181.30197446  .00001075  00000-0  85621-4 0  9996,2 51758  53.2142 205.1239 0001199  94.2310 265.8819 15.08835399131494,6917.894,95.438,540.589,538.93,0.0
51758.0,STARLINK-3458,PAYLOAD,2024-06-29 18:22:32,15.08837491,0.0001204,53.2142,203.0419,91.1214,268.9916,8.61e-05,1.083e-05,0.0,0 STARLINK-3458,1 51758U 22016AW  24181.76565460  .00001083  00000-0  86100-4 0  9993,2 51758  53.2142 203.0419 0001204  91.1214 268.9916 15.08837491131562,6917.888,95.438,540.586,538.92,0.0
51758.0,STARLINK-3458,PAYLOAD,2024-06-30 10:16:24,15.08835029,0.0001273,53.2147,200.0688,92.9312,267.1826,1.7147e-05,-1.5e-07,0.0,0 STARLINK-3458,1 51758U 22016AW  24182.42806046 -.00000015  00000-0  17147-4 0  9995,2 51758  53.2147 200.0688 0001273  92.9312 267.1826 15.08835029131663,6917.896,95.438,540.641,538.88,0.0
51758.0,STARLINK-3458,PAYLOAD,2024-06-30 18:13:19,15.08837944,0.0001267,53.2148,198.5813,88.7231,271.3906,4.4287e-05,4.17e-06,0.0,0 STARLINK-3458,1 51758U 22016AW  24182.75925846  .00000417  00000-0  44287-4 0  9991,2 51758  53.2148 198.5813 0001267  88.7231 271.3906 15.08837944131711,6917.887,95.438,540.628,538.875,0.0
51758.0,STARLINK-3458,PAYLOAD,2024-07-01 05:21:01,15.08842282,0.0001254,53.2147,196.4999,89.0032,271.1104,6.2701e-05,7.1e-06,0.0,0 STARLINK-3458,1 51758U 22016AW  24183.22293549  .00000710  00000-0  62701-4 0  9999,2 51758  53.2147 196.4999 0001254  89.0032 271.1104 15.08842282131787,6917.873,95.437,540.606,538.871,0.0
51758.0,STARLINK-3458,PAYLOAD,2024-07-01 10:07:10,15.08844164,0.0001261,53.2146,195.6073,88.3494,271.7643,7.5021e-05,9.06e-06,0.0,0 STARLINK-3458,1 51758U 22016AW  24183.42165369  .00000906  00000-0  75021-4 0  9995,2 51758  53.2146 195.6073 0001261  88.3494 271.7643 15.08844164131811,6917.868,95.437,540.605,538.86,0.0
51758.0,STARLINK-3458,PAYLOAD,2024-07-01 18:04:06,15.08839152,0.0001337,53.2151,194.1187,85.6501,274.4644,3.1369e-05,2.11e-06,0.0,0 STARLINK-3458,1 51758U 22016AW  24183.75285791  .00000211  00000-0  31369-4 0  9999,2 51758  53.2151 194.1187 0001337  85.6501 274.4644 15.08839152131867,6917.883,95.438,540.673,538.823,0.0
51758.0,STARLINK-3458,PAYLOAD,2024-07-02 05:11:48,15.08835913,0.0001267,53.2146,192.0366,86.8944,273.2193,7.9163e-05,9.72e-06,0.0,0 STARLINK-3458,1 51758U 22016AW  24184.21653904  .00000972  00000-0  79163-4 0  9994,2 51758  53.2146 192.0366 0001267  86.8944 273.2193 15.08835913131938,6917.893,95.438,540.634,538.881,0.0
51758.0,STARLINK-3458,PAYLOAD,2024-07-02 09:57:58,15.08838255,0.0001219,53.2144,191.1444,87.7034,272.4097,5.8417e-05,6.42e-06,0.0,0 STARLINK-3458,1 51758U 22016AW  24184.41525844  .00000642  00000-0  58417-4 0  9990,2 51758  53.2144 191.1444 0001219  87.7034 272.4097 15.08838255131969,6917.886,95.438,540.594,538.907,0.0
51758.0,STARLINK-3458,PAYLOAD,2024-07-02 17:54:53,15.08841583,0.0001226,53.2145,189.6581,86.7843,273.329,7.1195e-05,8.45e-06,0.0,0 STARLINK-3458,1 51758U 22016AW  24184.74645572  .00000845  00000-0  71195-4 0  9990,2 51758  53.2145 189.6581 0001226  86.7843 273.3290 15.08841583132019,6917.876,95.437,540.589,538.892,0.0
51758.0,STARLINK-3458,PAYLOAD,2024-07-03 05:02:35,15.08844889,0.000124,53.2147,187.5767,86.1731,273.9403,6.0065e-05,6.68e-06,0.0,0 STARLINK-3458,1 51758U 22016AW  24185.21013290  .00000668  00000-0  60065-4 0  9996,2 51758  53.2147 187.5767 0001240  86.1731 273.9403 15.08844889132081,6917.865,95.437,540.588,538.873,0.0
51758.0,STARLINK-3458,PAYLOAD,2024-07-03 17:45:40,15.08844034,0.0001234,53.2151,185.1981,84.5834,275.5299,4.2907e-05,3.95e-06,0.0,0 STARLINK-3458,1 51758U 22016AW  24185.74005196  .00000395  00000-0  42907-4 0  9992,2 51758  53.2151 185.1981 0001234  84.5834 275.5299 15.08844034132169,6917.868,95.437,540.587,538.879,0.0
51758.0,STARLINK-3458,PAYLOAD,2024-07-04 04:53:22,15.08838644,0.0001252,53.215,183.1171,83.0928,277.0206,3.085e-05,2.03e-06,0.0,0 STARLINK-3458,1 51758U 22016AW  24186.20373540  .00000203  00000-0  30850-4 0  9997,2 51758  53.2150 183.1171 0001252  83.0928 277.0206 15.08838644132238,6917.885,95.438,540.616,538.883,0.0
51758.0,STARLINK-3458,PAYLOAD,2024-07-04 09:39:31,15.08841867,0.0001264,53.2153,182.2246,86.0101,274.1036,4.2876e-05,3.95e-06,0.0,0 STARLINK-3458,1 51758U 22016AW  24186.40245257  .00000395  00000-0  42876-4 0  9995,2 51758  53.2153 182.2246 0001264  86.0101 274.1036 15.08841867132266,6917.875,95.437,540.614,538.865,0.0
51758.0,STARLINK-3458,PAYLOAD,2024-07-05 09:30:19,15.08839867,0.0001336,53.2159,177.7642,88.2717,271.8428,-1.0892e-05,-4.61e-06,0.0,0 STARLINK-3458,1 51758U 22016AW  24187.39605505 -.00000461  00000-0 -10892-4 0  9999,2 51758  53.2159 177.7642 0001336  88.2717 271.8428 15.08839867132411,6917.881,95.438,540.67,538.822,0.0
51758.0,STARLINK-3458,PAYLOAD,2024-07-05 15:51:51,15.08837623,0.0001332,53.2158,176.5746,87.8811,272.2333,-1.7477e-05,-5.66e-06,0.0,0 STARLINK-3458,1 51758U 22016AW  24187.66101680 -.00000566  00000-0 -17477-4 0  9996,2 51758  53.2158 176.5746 0001332  87.8811 272.2333 15.08837623132450,6917.888,95.438,540.674,538.831,0.0
51758.0,STARLINK-3458,PAYLOAD,2024-07-06 06:10:20,15.08838506,0.0001326,53.216,173.8986,87.5947,272.5196,1.7337e-05,-1.2e-07,0.0,0 STARLINK-3458,1 51758U 22016AW  24188.25717613 -.00000012  00000-0  17337-4 0  9991,2 51758  53.2160 173.8986 0001326  87.5947 272.5196 15.08838506132540,6917.885,95.438,540.667,538.833,0.0
51758.0,STARLINK-3458,PAYLOAD,2024-07-06 15:42:38,15.08836775,0.0001335,53.2162,172.1144,86.8207,273.2938,6.9182e-06,-1.78e-06,0.0,0 STARLINK-3458,1 51758U 22016AW  24188.65461769 -.00000178  00000-0  69182-5 0  9992,2 51758  53.2162 172.1144 0001335  86.8207 273.2938 15.08836775132606,6917.89,95.438,540.679,538.832,0.0
